PROXIMA II              
1 43696U 18088G   24035.94084658  .00072845  00000+0  88909-3 0  9993
2 43696  85.0127 267.8726 0010102  40.5008 319.7005 15.60139117291766
SIRION PATHFINDER-2     
1 43759U 18099B   24036.10728717  .00005233  00000+0  41377-3 0  9990
2 43759  97.5455  96.0290 0016076  27.0204 333.1854 15.00962687282537
CORVUS BC4              
1 43767U 18099K   24035.88459781  .00004383  00000+0  35290-3 0  9997
2 43767  97.5317  93.4286 0012540  84.4357 275.8297 15.00392603282399
MOVE-II                 
1 43780U 18099Y   24035.74639076  .00014545  00000+0  89194-3 0  9997
2 43780  97.5414 100.4547 0008706  79.5375 280.6835 15.10214528282757
SPACEBEE-7              
1 43816U 18099BL  24035.75700638  .00011025  00000+0  73022-3 0  9994
2 43816  97.5682 101.4019 0011635  32.7283 327.4664 15.07429803282281
SPACEBEE-5              
1 43817U 18099BM  24036.18284308  .00411189  00000+0  37377-2 0  9991
2 43817  97.5536 118.8062 0007853 300.0847  59.9634 15.66668117283388
SPACEBEE-6              
1 43818U 18099BN  24036.11998353  .00021900  00000+0  11839-2 0  9990
2 43818  97.5610 105.3615 0010620  38.0587 322.1393 15.14650622282710
SHIELDS 1               
1 43850U 18104B   24036.38286689  .00013258  00000+0  40672-3 0  9999
2 43850  85.0253  12.9376 0010460 195.5057 164.5873 15.33568648285789
STF-1                   
1 43852U 18104D   24036.36125979  .00495892  93187-4  15419-2 0  9994
2 43852  85.0026   3.9766 0011131 128.7000 231.5276 15.91472597286698
ZACUBE-2                
1 43907U 18111AH  24036.48016508  .00111820  00000+0  10859-2 0  9999
2 43907  97.0953 278.2383 0012037  76.3124 283.9476 15.65879911285294
LUME 1                  
1 43908U 18111AJ  24036.18244103  .00811993  33016-3  12982-2 0  9995
2 43908  97.0902 285.7511 0006591  85.8578 274.3456 16.03684550285761
SONATE                  
1 44400U 19038Q   24035.93694852  .00016009  00000+0  58451-3 0  9994
2 44400  97.7065  24.7923 0016580 210.6632 149.3639 15.28083855253690
LUCKY-7                 
1 44406U 19038W   24036.50879502  .00027942  00000+0  84774-3 0  9996
2 44406  97.6997  28.0096 0014761 193.9382 166.1455 15.33970553253960
BEESAT 9                
1 44412U 19038AC  24035.95667315  .00071271  00000+0  12391-2 0  9997
2 44412  97.6864  32.4866 0011056 166.7534 193.4010 15.50496857253942
JAISAT-1                
1 44419U 19038F   24035.95137214  .00069276  00000+0  12156-2 0  9995
2 44419  97.6853  33.5791 0010707 164.9077 195.2495 15.50247051254320
DUCHIFAT-3              
1 44854U 19089C   24036.42954383  .00013977  00000+0  80758-3 0  9992
2 44854  36.9588 131.9753 0007800  85.6304 274.5332 15.11671901228073
M2 PATHFINDER           
1 45727U 20037E   24036.46333071  .00003673  00000+0  33308-3 0  9997
2 45727  97.7665 213.7736 0010869 202.6114 157.4630 14.95907558196090
NETSAT-4                
1 46504U 20068U   24036.44524541  .00009855  00000+0  57993-3 0  9991
2 46504  97.7905 350.4894 0012605  94.6748 265.5921 15.11785652184096
NETSAT-3                
1 46505U 20068V   24036.38807286  .00008826  00000+0  52564-3 0  9991
2 46505  97.7880 350.0857 0011749 101.7439 258.5109 15.11394891184089
NETSAT-1                
1 46506U 20068W   24036.38908027  .00007607  00000+0  46618-3 0  9996
2 46506  97.7903 349.7974 0010182 109.7500 250.4828 15.10421665184064
NETSAT-2                
1 46507U 20068X   24036.38853408  .00009989  00000+0  58955-3 0  9991
2 46507  97.7894 350.1085 0009533 113.8584 246.3645 15.11706810184036
WILDTRACKCUBE-SIMBA     
1 47941U 21022K   24036.45911754  .00013489  00000+0  67820-3 0  9993
2 47941  97.4767 294.7264 0015062 246.7491 113.2157 15.17269934158313
BEESAT-6                
1 47957U 21022AB  24035.18593690  .00052905  00000+0  15019-2 0  9992
2 47957  97.4707 299.1844 0008506 213.5403 146.5303 15.35990277158310
SMOG-1                  
1 47964U 21022AJ  24036.48480756  .00055167  00000+0  14975-2 0  9995
2 47964  97.4788 303.3419 0008473 193.5871 166.5146 15.37376152157691
BCCSAT-1                
1 48041U 21022AK  24035.72986051  .00037251  00000+0  12101-2 0  9990
2 48041  97.4780 300.2635 0007382 202.9154 157.1759 15.31804533157401
BEESAT-5                
1 48083U 21022AM  24036.44803758  .00071063  00000+0  17894-2 0  9991
2 48083  97.4514 301.0834 0007852 198.9228 161.1727 15.39622287157716
BEESAT-7                
1 48084U 21022AN  24036.46391387  .00042469  00000+0  12103-2 0  9990
2 48084  97.4742 300.8087 0008669 214.3445 145.7239 15.35922128157256
BEESAT-8                
1 48085U 21022AP  24035.70723950  .00024010  00000+0  98854-3 0  9992
2 48085  97.4847 297.2726 0012230 235.0652 124.9437 15.24048735157497
LEDSAT                  
1 49069U 21073D   24036.46529206  .00014504  00000+0  67411-3 0  9995
2 49069  97.4554 108.9054 0021972  32.5546 327.7038 15.19869138136266
<!DOCTYPE html PUBLIC "-//W3C//DTD XHTML 1.0 Strict//EN" "http://www.w3.org/TR/xhtml1/DTD/xhtml1-strict.dtd">
<html xmlns="http://www.w3.org/1999/xhtml">
<head>
<meta http-equiv="Content-Type" content="text/html; charset=iso-8859-1"/>
<title>404 - File Not Found.</title>
<style type="text/css">
<!--
body{margin:0;font-size:.7em;font-family:Verdana, Arial, Helvetica, sans-serif;background:#EEEEEE;}
fieldset{padding:0 15px 10px 15px;}
h1{font-size:2.4em;margin:0;color:#FFF;}
h2{font-size:1.7em;margin:0;color:#CC0000;}
h3{font-size:1.2em;margin:10px 0 0 0;color:#000000;}
#header{width:96%;margin:0 0 0 0;padding:6px 2% 6px 2%;font-family:"trebuchet MS", Verdana, sans-serif;color:#FFF;
background-color:#555555;}
#content{margin:0 0 0 2%;position:relative;}
.content-container{background:#FFF;width:96%;margin-top:8px;padding:10px;position:relative;}
-->
</style>
</head>
<body>
<div id="header"><h1>Server Error</h1></div>
<div id="content">
 <div class="content-container"><fieldset>
  <h2>404 - File Not Found.</h2>
  <h3>File not found for celestrak.org/NORAD/elements/active.txt.</h3>
  <h3>Please contact <a href="mailto:ts.kelso@celestrak.org">ts.kelso@celestrak.org</a> if you have other questions.</h3>
 </fieldset></div>
</div>
</body>
</html>
BEIJING 1               
1 28890U 05043A   24036.47497684  .00000606  00000+0  12972-3 0  9998
2 28890  98.1811 160.4749 0016229 101.0780 259.2247 14.62123837974508
HJ-1A                   
1 33320U 08041A   24036.47662793  .00001826  00000+0  25145-3 0  9999
2 33320  97.6358  50.0900 0022066  84.7935 275.5794 14.79225653830731
HJ-1B                   
1 33321U 08041B   24036.44935672  .00001393  00000+0  18956-3 0  9997
2 33321  97.6336  54.5810 0039875 128.3767 232.1038 14.79719696830747
YAOGAN 4                
1 33446U 08061A   24036.39485293  .00002032  00000+0  28057-3 0  9994
2 33446  97.8714 330.9418 0015199   2.3515 357.7765 14.79144310817928
DEIMOS-1                
1 35681U 09041A   24036.47451047  .00000974  00000+0  15884-3 0  9992
2 35681  97.6764 225.5446 0002828  91.5951 268.5582 14.72985200779773
UK-DMC 2                
1 35683U 09041C   24036.47468947  .00001411  00000+0  22797-3 0  9999
2 35683  97.7585 189.7944 0001464  97.3884 262.7491 14.72822845779472
RISAT 1                 
1 38248U 12017A   24036.49725022  .00010854  00000+0  49862-3 0  9991
2 38248  97.5337  53.7135 0003530  23.5732 336.5664 15.20558327649413
DMC3-FM1                
1 40715U 15032A   24036.35564463  .00001067  00000+0  13663-3 0  9994
2 40715  97.7705 279.0364 0006293  21.4781 338.6696 14.83303683461885
DMC3-FM2                
1 40716U 15032B   24036.44632864  .00001102  00000+0  14096-3 0  9997
2 40716  97.7756 280.1072 0008276  22.2466 337.9106 14.83305636461892
DMC3-FM3                
1 40717U 15032C   24036.46812866  .00001107  00000+0  14157-3 0  9995
2 40717  97.7802 281.3323 0009640  17.5455 342.6090 14.83297330461906
NOAA 15                 
1 25338U 98030A   24036.46239236  .00000269  00000+0  12970-3 0  9999
2 25338  98.5843  66.2715 0010184 358.6851   1.4300 14.26486252338515
DMSP 5D-3 F16 (USA 172) 
1 28054U 03048A   24036.48318747  .00000254  00000+0  15784-3 0  9999
2 28054  99.0213  41.7095 0008202  71.3020  44.0359 14.13942602 47521
NOAA 18                 
1 28654U 05018A   24036.45378630  .00000292  00000+0  17955-3 0  9992
2 28654  98.8869 114.4790 0015143  81.0154 279.2731 14.13115892964515
METEOSAT-9 (MSG-2)      
1 28912U 05049B   24035.97700153  .00000138  00000+0  00000+0 0  9996
2 28912   7.3787  61.9663 0000688  37.3925  72.7432  1.00267293 66397
EWS-G1 (GOES 13)        
1 29155U 06018A   24035.86993837  .00000110  00000+0  00000+0 0  9994
2 29155   2.2754  86.8876 0088116 249.6224 169.0809  0.99152409 34717
DMSP 5D-3 F17 (USA 191) 
1 29522U 06050A   24036.48003555  .00000285  00000+0  17135-3 0  9990
2 29522  98.7492  49.7711 0009908   4.2633 355.8623 14.14387470890439
FENGYUN 3A              
1 32958U 08026A   24036.47548068  .00000229  00000+0  12986-3 0  9991
2 32958  98.5881 347.5557 0009863  94.7141 265.5162 14.19007868813144
FENGYUN 2E              
1 33463U 08066A   24036.05674241 -.00000194  00000+0  00000+0 0  9996
2 33463   7.2454  61.2871 0001523 303.2513 237.3786  1.00271107 55449
NOAA 19                 
1 33591U 09005A   24036.45762087  .00000261  00000+0  16485-3 0  9994
2 33591  99.0681  90.7464 0013052 308.5877  51.4125 14.12920333772883
GOES 14                 
1 35491U 09033A   24035.62178973 -.00000049  00000+0  00000+0 0  9996
2 35491   0.0585 194.0179 0001149 190.7398 224.8622  1.00272920 53451
DMSP 5D-3 F18 (USA 210) 
1 35951U 09057A   24036.45150312  .00000431  00000+0  24965-3 0  9996
2 35951  98.7987  13.7042 0010983 179.2557 180.8634 14.13986623737603
